NORAD_CAT_ID,OBJECT_NAME,OBJECT_TYPE,EPOCH,MEAN_MOTION,ECCENTRICITY,INCLINATION,RA_OF_ASC_NODE,ARG_OF_PERICENTER,MEAN_ANOMALY,BSTAR,MEAN_MOTION_DOT,MEAN_MOTION_DDOT,TLE_LINE0,TLE_LINE1,TLE_LINE2,SEMIMAJOR_AXIS,PERIOD,APOGEE,PERIGEE,DECAYED
52608.0,STARLINK-3979,PAYLOAD,2023-12-18 05:02:48,15.0885039,0.0001851,53.2187,326.479,73.7902,286.3294,0.00016397,2.323e-05,0.0,0 STARLINK-3979,1 52608U 22052L   23352.21028042  .00002323  00000-0  16397-3 0  9995,2 52608  53.2187 326.4790 0001851  73.7902 286.3294 15.08850390 88574,6917.849,95.437,540.994,538.433,0.0
52608.0,STARLINK-3979,PAYLOAD,2023-12-19 03:18:12,15.08836433,0.0002029,53.2172,322.3236,126.1199,233.9982,-3.8563e-05,-9.02e-06,0.0,0 STARLINK-3979,1 52608U 22052L   23353.13764973 -.00000902  00000-0 -38563-4 0  9990,2 52608  53.2172 322.3236 0002029 126.1199 233.9982 15.08836433 88717,6917.891,95.438,541.16,538.353,0.0
52608.0,STARLINK-3979,PAYLOAD,2023-12-19 04:53:36,15.08836777,0.0001643,53.2175,322.0199,111.7161,248.4007,-3.4303e-05,-8.34e-06,0.0,0 STARLINK-3979,1 52608U 22052L   23353.20389015 -.00000834  00000-0 -34303-4 0  9990,2 52608  53.2175 322.0199 0001643 111.7161 248.4007 15.08836777 88355,6917.89,95.438,540.892,538.619,0.0
52608.0,STARLINK-3979,PAYLOAD,2023-12-20 04:44:23,15.08844498,0.0001724,53.2177,317.562,118.8363,241.2803,-6.3811e-05,-1.304e-05,0.0,0 STARLINK-3979,1 52608U 22052L   23354.19748973 -.00001304  00000-0 -63811-4 0  9990,2 52608  53.2177 317.5620 0001724 118.8363 241.2803 15.08844498 88878,6917.867,95.437,540.924,538.539,0.0
52608.0,STARLINK-3979,PAYLOAD,2023-12-21 04:35:09,15.08852032,0.000136,53.217,313.0974,92.9793,267.1354,0.00033898,5.113e-05,0.0,0 STARLINK-3979,1 52608U 22052L   23355.19108763  .00005113  00000-0  33898-3 0  9999,2 52608  53.2170 313.0974 0001360  92.9793 267.1354 15.08852032 88656,6917.844,95.437,540.649,538.768,0.0
52608.0,STARLINK-3979,PAYLOAD,2023-12-22 02:50:34,15.08842269,0.0001389,53.2168,308.9373,94.7579,265.3572,4.3132e-05,3.99e-06,0.0,0 STARLINK-3979,1 52608U 22052L   23356.11845339  .00000399  00000-0  43132-4 0  9993,2 52608  53.2168 308.9373 0001389  94.7579 265.3572 15.08842269 89162,6917.873,95.437,540.699,538.778,0.0
52608.0,STARLINK-3979,PAYLOAD,2023-12-22 04:25:57,15.08844406,0.0001425,53.217,308.6405,83.7961,276.3194,8.1955e-05,1.017e-05,0.0,0 STARLINK-3979,1 52608U 22052L   23356.18469327  .00001017  00000-0  81955-4 0  9992,2 52608  53.2170 308.6405 0001425  83.7961 276.3194 15.08844406 88809,6917.867,95.437,540.718,538.746,0.0
52608.0,STARLINK-3979,PAYLOAD,2023-12-23 05:52:07,15.0884758,0.0001625,53.2183,303.8748,76.5638,283.5535,8.2311e-05,1.022e-05,0.0,0 STARLINK-3979,1 52608U 22052L   23357.24453189  .00001022  00000-0  82311-4 0  9992,2 52608  53.2183 303.8748 0001625  76.5638 283.5535 15.08847580 89337,6917.857,95.437,540.846,538.598,0.0
52608.0,STARLINK-3979,PAYLOAD,2023-12-23 20:10:36,15.08830686,0.000125,53.2172,301.2069,81.0543,279.0591,-4.961e-05,-1.077e-05,0.0,0 STARLINK-3979,1 52608U 22052L   23357.84070333 -.00001077  00000-0 -49610-4 0  9991,2 52608  53.2172 301.2069 0001250  81.0543 279.0591 15.08830686 89424,6917.909,95.438,540.639,538.909,0.0
52608.0,STARLINK-3979,PAYLOAD,2023-12-24 05:42:54,15.08849743,0.0001379,53.2173,299.4206,115.5863,244.5272,0.00035257,5.329e-05,0.0,0 STARLINK-3979,1 52608U 22052L   23358.23813620  .00005329  00000-0  35257-3 0  9992,2 52608  53.2173 299.4206 0001379 115.5863 244.5272 15.08849743 89489,6917.851,95.437,540.67,538.762,0.0
52608.0,STARLINK-3979,PAYLOAD,2023-12-25 02:22:55,15.08848815,0.0001557,53.2174,295.5541,93.9748,266.1422,0.00015767,2.223e-05,0.0,0 STARLINK-3979,1 52608U 22052L   23359.09925544  .00002223  00000-0  15767-3 0  9990,2 52608  53.2174 295.5541 0001557  93.9748 266.1422 15.08848815 89619,6917.853,95.437,540.796,538.641,0.0
52608.0,STARLINK-3979,PAYLOAD,2023-12-25 05:33:41,15.08852841,0.0001703,53.2187,294.953,110.2776,249.8399,0.00023456,3.448e-05,0.0,0 STARLINK-3979,1 52608U 22052L   23359.23173203  .00003448  00000-0  23456-3 0  9997,2 52608  53.2187 294.9530 0001703 110.2776 249.8399 15.08852841 89267,6917.841,95.437,540.884,538.528,0.0
52608.0,STARLINK-3979,PAYLOAD,2023-12-25 19:52:10,15.08838869,0.0001514,53.217,292.2836,94.5587,265.5578,-7.3634e-05,-1.46e-05,0.0,0 STARLINK-3979,1 52608U 22052L   23359.82790113 -.00001460  00000-0 -73634-4 0  9995,2 52608  53.2170 292.2836 0001514  94.5587 265.5578 15.08838869 89722,6917.884,95.438,540.796,538.701,0.0
52608.0,STARLINK-3979,PAYLOAD,2023-12-26 05:24:29,15.08842719,0.0001399,53.2165,290.4983,98.2972,261.8179,8.5284e-05,1.07e-05,0.0,0 STARLINK-3979,1 52608U 22052L   23360.22533863  .00001070  00000-0  85284-4 0  9997,2 52608  53.2165 290.4983 0001399  98.2972 261.8179 15.08842719 89410,6917.872,95.437,540.705,538.769,0.0
52608.0,STARLINK-3979,PAYLOAD,2023-12-26 22:53:43,15.08844661,0.0001426,53.217,287.2263,100.0352,260.0801,5.1736e-05,5.36e-06,0.0,0 STARLINK-3979,1 52608U 22052L   23360.95397920  .00000536  00000-0  51736-4 0  9990,2 52608  53.2170 287.2263 0001426 100.0352 260.0801 15.08844661 89529,6917.866,95.437,540.718,538.745,0.0
52608.0,STARLINK-3979,PAYLOAD,2023-12-27 02:04:29,15.08849382,0.0001467,53.2169,286.6314,94.8164,265.2995,0.00020016,2.9e-05,0.0,0 STARLINK-3979,1 52608U 22052L   23361.08645800  .00002900  00000-0  20016-3 0  9991,2 52608  53.2169 286.6314 0001467  94.8164 265.2995 15.08849382 89912,6917.852,95.437,540.732,538.702,0.0
52608.0,STARLINK-3979,PAYLOAD,2023-12-27 05:15:16,15.08850025,0.0001555,53.217,286.0366,110.3454,249.7705,0.00031899,4.794e-05,0.0,0 STARLINK-3979,1 52608U 22052L   23361.21893767  .00004794  00000-0  31899-3 0  9997,2 52608  53.2170 286.0366 0001555 110.3454 249.7705 15.08850025 89562,6917.85,95.437,540.79,538.639,0.0
52608.0,STARLINK-3979,PAYLOAD,2023-12-27 22:44:30,15.08844641,0.0001662,53.2165,282.762,114.7799,245.3366,-1.451e-06,-3.11e-06,0.0,0 STARLINK-3979,1 52608U 22052L   23361.94757825 -.00000311  00000-0 -14510-5 0  9997,2 52608  53.2165 282.7620 0001662 114.7799 245.3366 15.08844641 89675,6917.866,95.437,540.881,538.581,0.0
52608.0,STARLINK-3979,PAYLOAD,2023-12-28 01:55:17,15.08842021,0.0001411,53.217,282.1699,86.9399,273.1754,0.00011174,1.491e-05,0.0,0 STARLINK-3979,1 52608U 22052L   23362.08006125  .00001491  00000-0  11174-3 0  9992,2 52608  53.2170 282.1699 0001411  86.9399 273.1754 15.08842021 90064,6917.874,95.437,540.715,538.763,0.0
52608.0,STARLINK-3979,PAYLOAD,2023-12-28 22:35:18,15.0884102,0.0001554,53.2171,278.3086,106.7139,253.4024,-2.4671e-05,-6.81e-06,0.0,0 STARLINK-3979,1 52608U 22052L   23362.94118202 -.00000681  00000-0 -24671-4 0  9996,2 52608  53.2171 278.3086 0001554 106.7139 253.4024 15.08841020 89824,6917.877,95.437,540.817,538.667,0.0
52608.0,STARLINK-3979,PAYLOAD,2023-12-29 00:10:41,15.0884157,0.0001572,53.2171,278.0058,106.8085,253.3079,7.6348e-07,-2.76e-06,0.0,0 STARLINK-3979,1 52608U 22052L   23363.00742132 -.00000276  00000-0  76348-6 0  9998,2 52608  53.2171 278.0058 0001572 106.8085 253.3079 15.08841570 89831,6917.876,95.437,540.828,538.653,0.0
52608.0,STARLINK-3979,PAYLOAD,2023-12-29 22:26:05,15.0883912,0.0001601,53.2173,273.8507,107.2971,252.8196,9.9615e-05,1.298e-05,0.0,0 STARLINK-3979,1 52608U 22052L   23363.93478448  .00001298  00000-0  99615-4 0  9990,2 52608  53.2173 273.8507 0001601 107.2971 252.8196 15.08839120 89974,6917.883,95.438,540.856,538.641,0.0
52608.0,STARLINK-3979,PAYLOAD,2023-12-30 03:12:14,15.08847154,0.0001355,53.2156,272.954,96.1544,263.9603,7.6278e-05,9.26e-06,0.0,0 STARLINK-3979,1 52608U 22052L   23364.13350029  .00000926  00000-0  76278-4 0  9994,2 52608  53.2156 272.9540 0001355  96.1544 263.9603 15.08847154 90378,6917.859,95.437,540.661,538.786,0.0
52608.0,STARLINK-3979,PAYLOAD,2023-12-30 22:16:52,15.0883612,0.0001505,53.2166,269.3844,88.3319,271.7846,-3.3623e-06,-3.41e-06,0.0,0 STARLINK-3979,1 52608U 22052L   23364.92838836 -.00000341  00000-0 -33623-5 0  9999,2 52608  53.2166 269.3844 0001505  88.3319 271.7846 15.08836120 90126,6917.892,95.438,540.798,538.716,0.0
52608.0,STARLINK-3979,PAYLOAD,2023-12-31 01:27:38,15.08840002,0.0001573,53.2161,268.7938,87.0827,273.0345,8.337e-05,1.039e-05,0.0,0 STARLINK-3979,1 52608U 22052L   23365.06086711  .00001039  00000-0  83370-4 0  9998,2 52608  53.2161 268.7938 0001573  87.0827 273.0345 15.08840002 90519,6917.88,95.438,540.834,538.657,0.0
52608.0,STARLINK-3979,PAYLOAD,2023-12-31 22:07:39,15.08840418,0.0001464,53.2163,264.9281,83.6619,276.454,5.9435e-05,6.58e-06,0.0,0 STARLINK-3979,1 52608U 22052L   23365.92199058  .00000658  00000-0  59435-4 0  9993,2 52608  53.2163 264.9281 0001464  83.6619 276.4540 15.08840418 90278,6917.879,95.438,540.757,538.731,0.0
52608.0,STARLINK-3979,PAYLOAD,2024-01-01 02:53:49,15.08845666,0.0001507,53.2167,264.035,89.9447,270.1718,9.43e-05,1.213e-05,0.0,0 STARLINK-3979,1 52608U 22052L   24001.12070611  .00001213  00000-0  94300-4 0  9994,2 52608  53.2167 264.0350 0001507  89.9447 270.1718 15.08845666 90678,6917.863,95.437,540.771,538.686,0.0
52608.0,STARLINK-3979,PAYLOAD,2024-01-01 21:58:26,15.08852897,0.0001433,53.2165,260.4661,102.8001,257.3151,8.3801e-05,1.046e-05,0.0,0 STARLINK-3979,1 52608U 22052L   24001.91558041  .00001046  00000-0  83801-4 0  9997,2 52608  53.2165 260.4661 0001433 102.8001 257.3151 15.08852897 90425,6917.841,95.437,540.697,538.715,0.0
52608.0,STARLINK-3979,PAYLOAD,2024-01-02 02:44:35,15.08859016,0.0001563,53.2153,259.5737,101.8375,258.2793,0.00016312,2.31e-05,0.0,0 STARLINK-3979,1 52608U 22052L   24002.11429733  .00002310  00000-0  16312-3 0  9992,2 52608  53.2153 259.5737 0001563 101.8375 258.2793 15.08859016 90828,6917.822,95.436,540.769,538.606,0.0
52608.0,STARLINK-3979,PAYLOAD,2024-01-02 20:13:50,15.0884578,0.000209,53.2153,256.3013,123.4088,236.7104,7.4038e-05,8.9e-06,0.0,0 STARLINK-3979,1 52608U 22052L   24002.84294154  .00000890  00000-0  74038-4 0  9990,2 52608  53.2153 256.3013 0002090 123.4088 236.7104 15.08845780 90939,6917.863,95.437,541.174,538.282,0.0
